Skip Page Navigation
NASA Logo - Jet Propulsion Laboratory				+ View the NASA Portal
+ Center for Near-Earth Object Studies			
JPL Home	Earth	Solar System	Stars & Galaxies	Technology

JPL Solar System Dynamics
BODIES		ORBITS		EPHEMERIDES		TOOLS		PHYSICAL DATA		DISCOVERY		FAQ		SITE MAP

IMPORTANT: The SSD Announcement email list is now available. Major changes are coming in the near future, including possible hostname and/or URL changes. To be notified of such changes, subscribe to this email list.

Please visit this page for more details.


Don't show this message again
HORIZONS Web-Interface
This tool provides a web-based limited interface to JPL's HORIZONS system which can be used to generate ephemerides for solar-system bodies. Full access to HORIZONS features is available via the primary telnet interface. HORIZONS system news shows recent changes and improvements. A web-interface tutorial is available to assist new users.
Current Settings
Ephemeris Type [change] : 	ELEMENTS
Target Body [change] : 	Ganymede (JIII) [503]
Center [change] : 	Jupiter System Barycenter [500@5]
Time Span [change] : 	Start=JD 2458850.0, Stop=JD 2464329.0, Intervals=500
Table Settings [change] : 	CSV format=YES
Display/Output [change] : 	default (formatted HTML)
Object Data Page
 Revised: Jun 17, 2016           Ganymede / (Jupiter)                       503

 SATELLITE PHYSICAL PROPERTIES:
  Radius (km)             = 2634   +- 10     Density (g cm^-3)  =  1.94 +- 0.02
  Mass (10^20 kg )        = 1482   +- 1      Geometric Albedo   =  0.4

 SATELLITE ORBITAL DATA:
  Semi-major axis, a (km) = 1070.0428 (10^3) Orbital period     = 7.154553 d
  Eccentricity, e         = 0.0006           Rotational period  = Synchronous
  Inclination, i  (deg)   = 0.186
Results
*******************************************************************************
Ephemeris / WWW_USER Fri May 15 20:07:55 2020 Pasadena, USA      / Horizons    
*******************************************************************************
Target body name: Ganymede (503)                  {source: jup310}
Center body name: Jupiter Barycenter (5)          {source: DE431mx}
Center-site name: BODY CENTER
*******************************************************************************
Start time      : A.D. 2020-Jan-01 12:00:00.0000 TDB
Stop  time      : A.D. 2035-Jan-01 12:00:00.0000 TDB
Step-size       : 500 steps
*******************************************************************************
Center geodetic : 0.00000000,0.00000000,0.0000000 {E-lon(deg),Lat(deg),Alt(km)}
Center cylindric: 0.00000000,0.00000000,0.0000000 {E-lon(deg),Dxy(km),Dz(km)}
Center radii    : (undefined)                                                  
Keplerian GM    : 2.8246844789455731E-07 au^3/d^2
Output units    : AU-D, deg, Julian Day Number (Tp)                            
Output type     : GEOMETRIC osculating elements
Output format   : 10
Reference frame : ICRF/J2000.0                                                 
Coordinate systm: Ecliptic and Mean Equinox of Reference Epoch                 
*******************************************************************************
            JDTDB,            Calendar Date (TDB),                     EC,                     QR,                     IN,                     OM,                      W,                     Tp,                      N,                     MA,                     TA,                      A,                     AD,                     PR,
**************************************************************************************************************************************************************************************************************************************************************************************************************************************************
$$SOE
2460033.464000000, A.D. 2023-Mar-29 23:08:09.6000,  2.223848295086388E-03,  7.138651257542525E-03,  2.324599809140838E+00,  3.399262497261001E+02,  3.307003371035974E+02,  2.460032101530470E+06,  5.031911964954033E+01,  6.855826728230950E+01,  6.879570498615510E+01,  7.154561917865663E-03,  7.170472578188800E-03,  7.154338202005660E+00,
2460044.422000000, A.D. 2023-Apr-09 22:07:40.8000,  1.847897792201037E-03,  7.140330471766048E-03,  2.324689836573302E+00,  3.399206342352722E+02,  3.383786108519273E+02,  2.460046562597249E+06,  5.032980227082709E+01,  2.522641637431601E+02,  2.520626168964773E+02,  7.153549500093671E-03,  7.166768528421295E-03,  7.152819676557095E+00,
2460055.380000000, A.D. 2023-Apr-20 21:07:12.0000,  1.878181931990928E-03,  7.139939723816784E-03,  2.324728363105160E+00,  3.399153130050621E+02,  3.354014054828968E+02,  2.460053658657534E+06,  5.033164323547101E+01,  8.663799486840105E+01,  8.685287733172402E+01,  7.153375063614016E-03,  7.166810403411247E-03,  7.152558050127230E+00,
2460066.338000000, A.D. 2023-May-01 20:06:43.2000,  2.082996450478942E-03,  7.139014521324719E-03,  2.324787786975917E+00,  3.399083996855431E+02,  3.412932811008793E+02,  2.460068083887565E+06,  5.032593358745254E+01,  2.721365783360121E+02,  2.718980279987851E+02,  7.153916103174655E-03,  7.168817685024592E-03,  7.153369532120446E+00,
2460077.296000000, A.D. 2023-May-12 19:06:14.4000,  1.867560232136118E-03,  7.142173050882547E-03,  2.324858701263642E+00,  3.399040269046115E+02,  3.331096570471748E+02,  2.460075075646762E+06,  5.030884039137238E+01,  1.117033966795532E+02,  1.119020606189596E+02,  7.155536446189051E-03,  7.168899841495554E-03,  7.155799998557262E+00,
2460088.254000000, A.D. 2023-May-23 18:05:45.6000,  1.821494335554630E-03,  7.143952970059587E-03,  2.324874498800810E+00,  3.398970478227853E+02,  3.245110058837478E+02,  2.460089214669852E+06,  5.029352138207384E+01,  3.116845302580522E+02,  3.115284123885766E+02,  7.156989385685238E-03,  7.170025801310888E-03,  7.157979598706624E+00,
2460099.212000000, A.D. 2023-Jun-03 17:05:16.8000,  1.306974884656813E-03,  7.147916948621829E-03,  2.325000434618790E+00,  3.398927162735773E+02,  3.474502406594510E+02,  2.460096823172795E+06,  5.029054969340505E+01,  1.201354332746224E+02,  1.202648527843926E+02,  7.157271322482988E-03,  7.166625696344147E-03,  7.158402566580204E+00,
2460110.170000000, A.D. 2023-Jun-14 16:04:48.0000,  1.719988439538205E-03,  7.143870006018830E-03,  2.325098390256858E+00,  3.398859770958328E+02,  3.396244495438092E+02,  2.460110978231148E+06,  5.030206943256313E+01,  3.193443006727692E+02,  3.192156804906922E+02,  7.156178550396785E-03,  7.168487094774740E-03,  7.156763211951541E+00,
2460121.128000000, A.D. 2023-Jun-25 15:04:19.2000,  1.715262286406310E-03,  7.142161534315240E-03,  2.325299367418831E+00,  3.398816636929554E+02,  3.407428171775753E+02,  2.460118154884608E+06,  5.032047694462494E+01,  1.496085845184315E+02,  1.497078387406612E+02,  7.154433263873371E-03,  7.166704993431502E-03,  7.154145227919067E+00,
2460132.086000000, A.D. 2023-Jul-06 14:03:50.4000,  1.335079351473691E-03,  7.143956303162503E-03,  2.325392401658655E+00,  3.398744275647788E+02,  3.329956915901341E+02,  2.460132309745682E+06,  5.033025288277896E+01,  3.487388232479336E+02,  3.487088983651818E+02,  7.153506802384993E-03,  7.163057301607483E-03,  7.152755636623831E+00,
2460143.044000000, A.D. 2023-Jul-17 13:03:21.6000,  1.320283364809311E-03,  7.144065217052898E-03,  2.325575801677220E+00,  3.398686510038982E+02,  3.409892046062533E+02,  2.460139623546653E+06,  5.033022043296713E+01,  1.721521709292777E+02,  1.721727951890278E+02,  7.153509877143691E-03,  7.162954537234483E-03,  7.152760248278071E+00,
2460154.002000000, A.D. 2023-Jul-28 12:02:52.8000,  1.157682767310376E-03,  7.145464168348480E-03,  2.325684058266264E+00,  3.398621375256227E+02,  3.588004304156415E+02,  2.460154285586326E+06,  5.032772925554723E+01,  3.457277441726172E+02,  3.456949934421580E+02,  7.153745936741161E-03,  7.162027705133842E-03,  7.153114303489463E+00,
2460164.960000000, A.D. 2023-Aug-08 11:02:24.0000,  1.440587549820488E-03,  7.145121333419375E-03,  2.325847407008568E+00,  3.398536696922802E+02,  3.565693465833728E+02,  2.460161395128483E+06,  5.030996980164431E+01,  1.793485783638192E+02,  1.793504518095790E+02,  7.155429355863049E-03,  7.165737378306723E-03,  7.155639357752784E+00,
2460175.918000000, A.D. 2023-Aug-19 10:01:55.2000,  1.679281239018626E-03,  7.144857714143915E-03,  2.326028676047943E+00,  3.398470092747363E+02,  3.564872295931585E+02,  2.460175702817260E+06,  5.029471529435301E+01,  1.082255466628398E+01,  1.085876177402121E+01,  7.156876121945480E-03,  7.168894529747045E-03,  7.157809680263168E+00,
2460186.876000000, A.D. 2023-Aug-30 09:01:26.4000,  1.060359544547300E-03,  7.149608173108535E-03,  2.326119623280470E+00,  3.398394748336098E+02,  3.495949166115578E+02,  2.460189876462235E+06,  5.029132908425161E+01,  2.091027663549089E+02,  2.090437358436675E+02,  7.157197375658023E-03,  7.164786578207512E-03,  7.158291629097779E+00,
2460197.834000000, A.D. 2023-Sep-10 08:00:57.6000,  1.467461667556672E-03,  7.145706103574805E-03,  2.326285933002257E+00,  3.398324017592060E+02,  1.188412519995098E+01,  2.460197472054270E+06,  5.030176352281808E+01,  1.820650853212183E+01,  1.825914021500335E+01,  7.156207563859849E-03,  7.166709024144893E-03,  7.156806735745864E+00,
2460208.792000000, A.D. 2023-Sep-21 07:00:28.8000,  1.594499760482079E-03,  7.143102548225914E-03,  2.326383498275725E+00,  3.398232661901993E+02,  1.371349265078172E+01,  2.460211817451744E+06,  5.031966301286830E+01,  2.077602877867583E+02,  2.076753333095887E+02,  7.154510413366392E-03,  7.165918278506871E-03,  7.154260947811531E+00,
2460219.750000000, A.D. 2023-Oct-02 06:00:00.0000,  1.743987314425570E-03,  7.141142340363172E-03,  2.326554749374916E+00,  3.398147037202754E+02,  3.409018891043030E+00,  2.460218767412198E+06,  5.032907768321300E+01,  4.945273780416955E+01,  4.960481027274672E+01,  7.153618159685909E-03,  7.166093979008647E-03,  7.152922655685305E+00,
